{
  "type": "FeatureCollection",
  "features": [
    {
      "type": "Feature",
      "properties": {
        "norad_id": 41556,
        "name": "ZIYUAN 3-2 (ZY 3-2)",
        "group": "resource",
        "lat": 52.49371676468103,
        "lon": -112.05144858344985,
        "alt_km": 502.490433334925,
        "timestamp": "2025-12-09T23:33:23.506565+00:00",
        "meta_object_name": "ZIYUAN 3-2 (ZY 3-2)",
        "meta_object_id": "2016-033A",
        "meta_epoch": "2025-12-09T15:06:27.582624",
        "meta_mean_motion": 15.2143081,
        "meta_eccentricity": 0.00124288,
        "meta_inclination": 97.4041,
        "meta_ra_of_asc_node": 57.8474,
        "meta_arg_of_pericenter": 261.1847,
        "meta_mean_anomaly": 98.7981,
        "meta_ephemeris_type": 0,
        "meta_classification_type": "U",
        "meta_norad_cat_id": 41556,
        "meta_element_set_no": 999,
        "meta_rev_at_epoch": 52916,
        "meta_bstar": 0.00048931246,
        "meta_mean_motion_dot": 0.00010948,
        "meta_mean_motion_ddot": 0,
        "tle_line1": "1 41556U 16033A   25343.62948591  .00010948  00000+0  48931-3 0  9994",
        "tle_line2": "2 41556  97.4041  57.8474 0012428 261.1847  98.7981 15.21430810529169"
      },
      "geometry": {
        "type": "Point",
        "coordinates": [
          -112.05144858344985,
          52.49371676468103
        ]
      }
    },
    {
      "type": "Feature",
      "properties": {
        "norad_id": 41599,
        "name": "CARTOSAT-2C",
        "group": "resource",
        "lat": 82.06267453568142,
        "lon": -68.36680706608954,
        "alt_km": 493.557008832905,
        "timestamp": "2025-12-09T23:33:23.506575+00:00",
        "meta_object_name": "CARTOSAT-2C",
        "meta_object_id": "2016-040A",
        "meta_epoch": "2025-12-09T15:14:50.297568",
        "meta_mean_motion": 15.19251075,
        "meta_eccentricity": 0.0010923,
        "meta_inclination": 97.4764,
        "meta_ra_of_asc_node": 40.9173,
        "meta_arg_of_pericenter": 73.867,
        "meta_mean_anomaly": 286.3766,
        "meta_ephemeris_type": 0,
        "meta_classification_type": "U",
        "meta_norad_cat_id": 41599,
        "meta_element_set_no": 999,
        "meta_rev_at_epoch": 52493,
        "meta_bstar": 0.00046206817,
        "meta_mean_motion_dot": 9.691e-05,
        "meta_mean_motion_ddot": 0,
        "tle_line1": "1 41599U 16040A   25343.63530437  .00009691  00000+0  46207-3 0  9993",
        "tle_line2": "2 41599  97.4764  40.9173 0010923  73.8670 286.3766 15.19251075524934"
      },
      "geometry": {
        "type": "Point",
        "coordinates": [
          -68.36680706608954,
          82.06267453568142
        ]
      }
    },
    {
      "type": "Feature",
      "properties": {
        "norad_id": 41601,
        "name": "SKYSAT-C1",
        "group": "resource",
        "lat": 16.024739435067797,
        "lon": 19.133166622587662,
        "alt_km": 467.27294028189226,
        "timestamp": "2025-12-09T23:33:23.506586+00:00",
        "meta_object_name": "SKYSAT-C1",
        "meta_object_id": "2016-040C",
        "meta_epoch": "2025-12-09T09:22:57.016416",
        "meta_mean_motion": 15.32493174,
        "meta_eccentricity": 0.0002745,
        "meta_inclination": 96.9826,
        "meta_ra_of_asc_node": 20.5932,
        "meta_arg_of_pericenter": 25.1532,
        "meta_mean_anomaly": 334.9844,
        "meta_ephemeris_type": 0,
        "meta_classification_type": "U",
        "meta_norad_cat_id": 41601,
        "meta_element_set_no": 999,
        "meta_rev_at_epoch": 52876,
        "meta_bstar": 0.00040404839,
        "meta_mean_motion_dot": 0.00012613,
        "meta_mean_motion_ddot": 0,
        "tle_line1": "1 41601U 16040C   25343.39093769  .00012613  00000+0  40405-3 0  9994",
        "tle_line2": "2 41601  96.9826  20.5932 0002745  25.1532 334.9844 15.32493174528763"
      },
      "geometry": {
        "type": "Point",
        "coordinates": [
          19.133166622587662,
          16.024739435067797
        ]
      }
    },
    {
      "type": "Feature",
      "properties": {
        "norad_id": 41603,
        "name": "LAPAN-A3",
        "group": "resource",
        "lat": 9.757203327915654,
        "lon": 162.87359807166933,
        "alt_km": 479.8738846144988,
        "timestamp": "2025-12-09T23:33:23.506597+00:00",
        "meta_object_name": "LAPAN-A3",
        "meta_object_id": "2016-040E",
        "meta_epoch": "2025-12-09T14:58:32.679840",
        "meta_mean_motion": 15.31513013,
        "meta_eccentricity": 0.00100231,
        "meta_inclination": 97.1432,
        "meta_ra_of_asc_node": 341.2933,
        "meta_arg_of_pericenter": 345.9109,
        "meta_mean_anomaly": 14.1852,
        "meta_ephemeris_type": 0,
        "meta_classification_type": "U",
        "meta_norad_cat_id": 41603,
        "meta_element_set_no": 999,
        "meta_rev_at_epoch": 52578,
        "meta_bstar": 0.00020107214,
        "meta_mean_motion_dot": 6.053e-05,
        "meta_mean_motion_ddot": 0,
        "tle_line1": "1 41603U 16040E   25343.62398935  .00006053  00000+0  20107-3 0  9993",
        "tle_line2": "2 41603  97.1432 341.2933 0010023 345.9109  14.1852 15.31513013525785"
      },
      "geometry": {
        "type": "Point",
        "coordinates": [
          162.87359807166933,
          9.757203327915654
        ]
      }
    },
    {
      "type": "Feature",
      "properties": {
        "norad_id": 41604,
        "name": "BIROS",
        "group": "resource",
        "lat": 37.298804768303086,
        "lon": -159.27028743141875,
        "alt_km": 301.9285252709933,
        "timestamp": "2025-12-09T23:33:23.506607+00:00",
        "meta_object_name": "BIROS",
        "meta_object_id": "2016-040F",
        "meta_epoch": "2025-12-09T01:47:24.559584",
        "meta_mean_motion": 15.88119261,
        "meta_eccentricity": 0.00032029,
        "meta_inclination": 97.0691,
        "meta_ra_of_asc_node": 14.3635,
        "meta_arg_of_pericenter": 156.004,
        "meta_mean_anomaly": 204.1383,
        "meta_ephemeris_type": 0,
        "meta_classification_type": "U",
        "meta_norad_cat_id": 41604,
        "meta_element_set_no": 999,
        "meta_rev_at_epoch": 52814,
        "meta_bstar": 0.00066699357,
        "meta_mean_motion_dot": 0.00184271,
        "meta_mean_motion_ddot": 0,
        "tle_line1": "1 41604U 16040F   25343.07458981  .00184271  00000+0  66699-3 0  9996",
        "tle_line2": "2 41604  97.0691  14.3635 0003202 156.0040 204.1383 15.88119261528147"
      },
      "geometry": {
        "type": "Point",
        "coordinates": [
          -159.27028743141875,
          37.298804768303086
        ]
      }
    },
    {
      "type": "Feature",
      "properties": {
        "norad_id": 41727,
        "name": "GAOFEN-3",
        "group": "resource",
        "lat": 65.83079348901495,
        "lon": -171.15793666085216,
        "alt_km": 744.0680510220445,
        "timestamp": "2025-12-09T23:33:23.506618+00:00",
        "meta_object_name": "GAOFEN-3",
        "meta_object_id": "2016-049A",
        "meta_epoch": "2025-12-09T14:42:38.040192",
        "meta_mean_motion": 14.42212176,
        "meta_eccentricity": 0.00015051,
        "meta_inclination": 98.4036,
        "meta_ra_of_asc_node": 349.2465,
        "meta_arg_of_pericenter": 63.9984,
        "meta_mean_anomaly": 296.136,
        "meta_ephemeris_type": 0,
        "meta_classification_type": "U",
        "meta_norad_cat_id": 41727,
        "meta_element_set_no": 999,
        "meta_rev_at_epoch": 49132,
        "meta_bstar": 2.4603789e-05,
        "meta_mean_motion_dot": 3.8e-07,
        "meta_mean_motion_ddot": 0,
        "tle_line1": "1 41727U 16049A   25343.61294028  .00000038  00000+0  24604-4 0  9990",
        "tle_line2": "2 41727  98.4036 349.2465 0001505  63.9984 296.1360 14.42212176491322"
      },
      "geometry": {
        "type": "Point",
        "coordinates": [
          -171.15793666085216,
          65.83079348901495
        ]
      }
    },
    {
      "type": "Feature",
      "properties": {
        "norad_id": 41771,
        "name": "SKYSAT-C4",
        "group": "resource",
        "lat": -35.76208751551716,
        "lon": -175.7278306268857,
        "alt_km": 446.2151488244499,
        "timestamp": "2025-12-09T23:33:23.506629+00:00",
        "meta_object_name": "SKYSAT-C4",
        "meta_object_id": "2016-058B",
        "meta_epoch": "2025-12-09T00:49:12.473760",
        "meta_mean_motion": 15.42085038,
        "meta_eccentricity": 0.00011565,
        "meta_inclination": 96.9374,
        "meta_ra_of_asc_node": 8.402,
        "meta_arg_of_pericenter": 132.7744,
        "meta_mean_anomaly": 227.3602,
        "meta_ephemeris_type": 0,
        "meta_classification_type": "U",
        "meta_norad_cat_id": 41771,
        "meta_element_set_no": 999,
        "meta_rev_at_epoch": 51610,
        "meta_bstar": 0.00040944192,
        "meta_mean_motion_dot": 0.00017439,
        "meta_mean_motion_ddot": 0,
        "tle_line1": "1 41771U 16058B   25343.03417215  .00017439  00000+0  40944-3 0  9997",
        "tle_line2": "2 41771  96.9374   8.4020 0001156 132.7744 227.3602 15.42085038516106"
      },
      "geometry": {
        "type": "Point",
        "coordinates": [
          -175.7278306268857,
          -35.76208751551716
        ]
      }
    }
  ]
}